GLOBALSTAR M023 [+]     
1 25621U 99004A   24002.97109137 -.00000143  00000+0 -22049-3 0  9992
2 25621  52.0094 230.9251 0010844  35.6390  73.6626 12.62441768148636
GLOBALSTAR M040 [-]     
1 25622U 99004B   24003.59229617 -.00000075  00000+0  15926-3 0  9997
2 25622  51.9900 232.4133 0000894  33.2811 344.2776 12.61963287148269
GLOBALSTAR M036 [-]     
1 25623U 99004C   24003.58871640 -.00000054  00000+0  42382-3 0  9999
2 25623  51.9930 198.8086 0012445 113.9284 284.2998 11.86558614115993
GLOBALSTAR M038 [-]     
1 25624U 99004D   24003.38625738 -.00000056  00000+0  31834-3 0  9995
2 25624  51.9950 160.1651 0002354  57.9581 317.7675 12.32490821136928
GLOBALSTAR M022 [-]     
1 25649U 99012A   24003.27523303 -.00000076  00000+0  13502-3 0  9998
2 25649  52.0056 294.1330 0002007 189.1450 338.0972 12.02475439112503
GLOBALSTAR M041 [-]     
1 25650U 99012B   24003.56548707 -.00000068  00000+0  21738-3 0  9998
2 25650  51.9995 158.6146 0001951  22.6668 337.4254 11.96651820114750
GLOBALSTAR M046 [-]     
1 25651U 99012C   24003.10370618 -.00000143  00000+0 -59766-3 0  9990
2 25651  52.0048 264.1177 0001498 291.6753 215.7419 12.09381107119409
GLOBALSTAR M037 [+]     
1 25652U 99012D   24003.32242198 -.00000092  00000+0  67473-4 0  9993
2 25652  52.0025   0.6770 0002089  89.9350  17.3454 12.62392367144227
